CCSDS_OMM_VERS = 2.0
CREATION_DATE  = 
ORIGINATOR     = 

OBJECT_NAME    = SL-16 R/B
OBJECT_ID      = 1994-074B
CENTER_NAME    = EARTH
REF_FRAME      = TEME
TIME_SYSTEM    = UTC
MEAN_ELEMENT_THEORY = SGP/SGP4

EPOCH          = 2025-12-06T15:57:00.239040
MEAN_MOTION    = 14.79279419
ECCENTRICITY   = .00071393
INCLINATION    = 97.7207
RA_OF_ASC_NODE = 10.2105
ARG_OF_PERICENTER = 153.2787
MEAN_ANOMALY   = 320.2078

EPHEMERIS_TYPE = 0
CLASSIFICATION_TYPE = U
NORAD_CAT_ID   = 23343
ELEMENT_SET_NO = 999
REV_AT_EPOCH   = 67349
BSTAR          = .14090211E-3
MEAN_MOTION_DOT = .999E-5
MEAN_MOTION_DDOT = 0

CCSDS_OMM_VERS = 2.0
CREATION_DATE  = 
ORIGINATOR     = 

OBJECT_NAME    = SL-16 R/B
OBJECT_ID      = 1994-077B
CENTER_NAME    = EARTH
REF_FRAME      = TEME
TIME_SYSTEM    = UTC
MEAN_ELEMENT_THEORY = SGP/SGP4

EPOCH          = 2025-12-06T21:55:54.303744
MEAN_MOTION    = 14.15546527
ECCENTRICITY   = .00045861
INCLINATION    = 70.9812
RA_OF_ASC_NODE = 187.6701
ARG_OF_PERICENTER = 288.5317
MEAN_ANOMALY   = 71.5307

EPHEMERIS_TYPE = 0
CLASSIFICATION_TYPE = U
NORAD_CAT_ID   = 23405
ELEMENT_SET_NO = 999
REV_AT_EPOCH   = 60310
BSTAR          = .11816369E-3
MEAN_MOTION_DOT = .183E-5
MEAN_MOTION_DDOT = 0

CCSDS_OMM_VERS = 2.0
CREATION_DATE  = 
ORIGINATOR     = 

OBJECT_NAME    = ARIANE 40+ R/B
OBJECT_ID      = 1995-021B
CENTER_NAME    = EARTH
REF_FRAME      = TEME
TIME_SYSTEM    = UTC
MEAN_ELEMENT_THEORY = SGP/SGP4

EPOCH          = 2025-12-06T20:09:47.931840
MEAN_MOTION    = 14.39688673
ECCENTRICITY   = .00076796
INCLINATION    = 98.4658
RA_OF_ASC_NODE = 48.5000
ARG_OF_PERICENTER = 65.4321
MEAN_ANOMALY   = 52.7295

EPHEMERIS_TYPE = 0
CLASSIFICATION_TYPE = U
NORAD_CAT_ID   = 23561
ELEMENT_SET_NO = 999
REV_AT_EPOCH   = 60588
BSTAR          = .22341335E-3
MEAN_MOTION_DOT = .656E-5
MEAN_MOTION_DDOT = 0

CCSDS_OMM_VERS = 2.0
CREATION_DATE  = 
ORIGINATOR     = 

OBJECT_NAME    = SL-16 R/B
OBJECT_ID      = 1995-058B
CENTER_NAME    = EARTH
REF_FRAME      = TEME
TIME_SYSTEM    = UTC
MEAN_ELEMENT_THEORY = SGP/SGP4

EPOCH          = 2025-12-06T20:17:36.720096
MEAN_MOTION    = 14.15481149
ECCENTRICITY   = .00148965
INCLINATION    = 71.0225
RA_OF_ASC_NODE = 15.1794
ARG_OF_PERICENTER = 262.5657
MEAN_ANOMALY   = 97.3774

EPHEMERIS_TYPE = 0
CLASSIFICATION_TYPE = U
NORAD_CAT_ID   = 23705
ELEMENT_SET_NO = 999
REV_AT_EPOCH   = 55471
BSTAR          = .19327764E-3
MEAN_MOTION_DOT = .33E-5
MEAN_MOTION_DDOT = 0

CCSDS_OMM_VERS = 2.0
CREATION_DATE  = 
ORIGINATOR     = 

OBJECT_NAME    = SL-16 R/B
OBJECT_ID      = 1996-051B
CENTER_NAME    = EARTH
REF_FRAME      = TEME
TIME_SYSTEM    = UTC
MEAN_ELEMENT_THEORY = SGP/SGP4

EPOCH          = 2025-12-06T21:26:52.973088
MEAN_MOTION    = 14.12395754
ECCENTRICITY   = .00192922
INCLINATION    = 70.7598
RA_OF_ASC_NODE = 11.6587
ARG_OF_PERICENTER = 268.5307
MEAN_ANOMALY   = 91.3602

EPHEMERIS_TYPE = 0
CLASSIFICATION_TYPE = U
NORAD_CAT_ID   = 24298
ELEMENT_SET_NO = 999
REV_AT_EPOCH   = 50854
BSTAR          = .57542838E-4
MEAN_MOTION_DOT = .57E-6
MEAN_MOTION_DDOT = 0

CCSDS_OMM_VERS = 2.0
CREATION_DATE  = 
ORIGINATOR     = 

OBJECT_NAME    = ORBVIEW 2 (SEASTAR)
OBJECT_ID      = 1997-037A
CENTER_NAME    = EARTH
REF_FRAME      = TEME
TIME_SYSTEM    = UTC
MEAN_ELEMENT_THEORY = SGP/SGP4

EPOCH          = 2025-12-06T22:05:38.983776
MEAN_MOTION    = 14.35410304
ECCENTRICITY   = .00019392
INCLINATION    = 98.8455
RA_OF_ASC_NODE = 137.8487
ARG_OF_PERICENTER = 0.4338
MEAN_ANOMALY   = 359.6848

EPHEMERIS_TYPE = 0
CLASSIFICATION_TYPE = U
NORAD_CAT_ID   = 24883
ELEMENT_SET_NO = 999
REV_AT_EPOCH   = 49516
BSTAR          = .22328628E-3
MEAN_MOTION_DOT = .595E-5
MEAN_MOTION_DDOT = 0

CCSDS_OMM_VERS = 2.0
CREATION_DATE  = 
ORIGINATOR     = 

OBJECT_NAME    = SL-16 R/B
OBJECT_ID      = 1998-043G
CENTER_NAME    = EARTH
REF_FRAME      = TEME
TIME_SYSTEM    = UTC
MEAN_ELEMENT_THEORY = SGP/SGP4

EPOCH          = 2025-12-06T20:01:31.133568
MEAN_MOTION    = 14.26023335
ECCENTRICITY   = .00088816
INCLINATION    = 98.8115
RA_OF_ASC_NODE = 288.6197
ARG_OF_PERICENTER = 285.8970
MEAN_ANOMALY   = 74.1230

EPHEMERIS_TYPE = 0
CLASSIFICATION_TYPE = U
NORAD_CAT_ID   = 25400
ELEMENT_SET_NO = 999
REV_AT_EPOCH   = 42575
BSTAR          = .86178313E-4
MEAN_MOTION_DOT = .161E-5
MEAN_MOTION_DDOT = 0

CCSDS_OMM_VERS = 2.0
CREATION_DATE  = 
ORIGINATOR     = 

OBJECT_NAME    = SL-16 R/B
OBJECT_ID      = 1998-045B
CENTER_NAME    = EARTH
REF_FRAME      = TEME
TIME_SYSTEM    = UTC
MEAN_ELEMENT_THEORY = SGP/SGP4

EPOCH          = 2025-12-06T19:57:18.517248
MEAN_MOTION    = 14.16176009
ECCENTRICITY   = .00072409
INCLINATION    = 71.0125
RA_OF_ASC_NODE = 16.8521
ARG_OF_PERICENTER = 186.8206
MEAN_ANOMALY   = 173.2820

EPHEMERIS_TYPE = 0
CLASSIFICATION_TYPE = U
NORAD_CAT_ID   = 25407
ELEMENT_SET_NO = 999
REV_AT_EPOCH   = 41395
BSTAR          = .5440841E-5
MEAN_MOTION_DOT = -.37E-6
MEAN_MOTION_DDOT = 0

CCSDS_OMM_VERS = 2.0
CREATION_DATE  = 
ORIGINATOR     = 

OBJECT_NAME    = ISS (ZARYA)
OBJECT_ID      = 1998-067A
CENTER_NAME    = EARTH
REF_FRAME      = TEME
TIME_SYSTEM    = UTC
MEAN_ELEMENT_THEORY = SGP/SGP4

EPOCH          = 2025-12-06T20:46:13.238400
MEAN_MOTION    = 15.49374779
ECCENTRICITY   = .00034973
INCLINATION    = 51.6304
RA_OF_ASC_NODE = 171.5636
ARG_OF_PERICENTER = 213.1314
MEAN_ANOMALY   = 146.9456

EPHEMERIS_TYPE = 0
CLASSIFICATION_TYPE = U
NORAD_CAT_ID   = 25544
ELEMENT_SET_NO = 999
REV_AT_EPOCH   = 54194
BSTAR          = .25393652E-3
MEAN_MOTION_DOT = .1375E-3
MEAN_MOTION_DDOT = 0

CCSDS_OMM_VERS = 2.0
CREATION_DATE  = 
ORIGINATOR     = 

OBJECT_NAME    = CZ-4B R/B
OBJECT_ID      = 1999-025C
CENTER_NAME    = EARTH
REF_FRAME      = TEME
TIME_SYSTEM    = UTC
MEAN_ELEMENT_THEORY = SGP/SGP4

EPOCH          = 2025-12-06T23:10:42.913344
MEAN_MOTION    = 14.18241455
ECCENTRICITY   = .00361422
INCLINATION    = 98.6775
RA_OF_ASC_NODE = 22.3747
ARG_OF_PERICENTER = 251.0580
MEAN_ANOMALY   = 178.4763

EPHEMERIS_TYPE = 0
CLASSIFICATION_TYPE = U
NORAD_CAT_ID   = 25732
ELEMENT_SET_NO = 999
REV_AT_EPOCH   = 37502
BSTAR          = .99257884E-4
MEAN_MOTION_DOT = .162E-5
MEAN_MOTION_DDOT = 0

CCSDS_OMM_VERS = 2.0
CREATION_DATE  = 
ORIGINATOR     = 

OBJECT_NAME    = OKEAN-O
OBJECT_ID      = 1999-039A
CENTER_NAME    = EARTH
REF_FRAME      = TEME
TIME_SYSTEM    = UTC
MEAN_ELEMENT_THEORY = SGP/SGP4

EPOCH          = 2025-12-06T21:47:51.110880
MEAN_MOTION    = 14.80145640
ECCENTRICITY   = .00007985
INCLINATION    = 97.9610
RA_OF_ASC_NODE = 36.6601
ARG_OF_PERICENTER = 85.9717
MEAN_ANOMALY   = 274.1586

EPHEMERIS_TYPE = 0
CLASSIFICATION_TYPE = U
NORAD_CAT_ID   = 25860
ELEMENT_SET_NO = 999
REV_AT_EPOCH   = 42066
BSTAR          = .19363985E-3
MEAN_MOTION_DOT = .1418E-4
MEAN_MOTION_DDOT = 0

CCSDS_OMM_VERS = 2.0
CREATION_DATE  = 
ORIGINATOR     = 

OBJECT_NAME    = SL-16 R/B
OBJECT_ID      = 1999-039B
CENTER_NAME    = EARTH
REF_FRAME      = TEME
TIME_SYSTEM    = UTC
MEAN_ELEMENT_THEORY = SGP/SGP4

EPOCH          = 2025-12-06T21:48:50.432256
MEAN_MOTION    = 14.81573566
ECCENTRICITY   = .00144789
INCLINATION    = 98.0132
RA_OF_ASC_NODE = 35.0595
ARG_OF_PERICENTER = 193.6749
MEAN_ANOMALY   = 166.4073

EPHEMERIS_TYPE = 0
CLASSIFICATION_TYPE = U
NORAD_CAT_ID   = 25861
ELEMENT_SET_NO = 999
REV_AT_EPOCH   = 42312
BSTAR          = .15996019E-3
MEAN_MOTION_DOT = .1204E-4
MEAN_MOTION_DDOT = 0

CCSDS_OMM_VERS = 2.0
CREATION_DATE  = 
ORIGINATOR     = 

OBJECT_NAME    = DELTA 2 R/B
OBJECT_ID      = 1999-041E
CENTER_NAME    = EARTH
REF_FRAME      = TEME
TIME_SYSTEM    = UTC
MEAN_ELEMENT_THEORY = SGP/SGP4

EPOCH          = 2025-12-06T21:46:12.754848
MEAN_MOTION    = 14.11379165
ECCENTRICITY   = .05047668
INCLINATION    = 51.7621
RA_OF_ASC_NODE = 311.7291
ARG_OF_PERICENTER = 74.5764
MEAN_ANOMALY   = 291.0327

EPHEMERIS_TYPE = 0
CLASSIFICATION_TYPE = U
NORAD_CAT_ID   = 25876
ELEMENT_SET_NO = 999
REV_AT_EPOCH   = 34992
BSTAR          = .35130379E-3
MEAN_MOTION_DOT = .1939E-4
MEAN_MOTION_DDOT = 0

CCSDS_OMM_VERS = 2.0
CREATION_DATE  = 
ORIGINATOR     = 

OBJECT_NAME    = HELIOS 1B
OBJECT_ID      = 1999-064A
CENTER_NAME    = EARTH
REF_FRAME      = TEME
TIME_SYSTEM    = UTC
MEAN_ELEMENT_THEORY = SGP/SGP4

EPOCH          = 2025-12-06T22:48:22.072608
MEAN_MOTION    = 14.87246123
ECCENTRICITY   = .00020236
INCLINATION    = 98.1754
RA_OF_ASC_NODE = 235.4441
ARG_OF_PERICENTER = 50.3504
MEAN_ANOMALY   = 309.7889

EPHEMERIS_TYPE = 0
CLASSIFICATION_TYPE = U
NORAD_CAT_ID   = 25977
ELEMENT_SET_NO = 999
REV_AT_EPOCH   = 67147
BSTAR          = .37319329E-3
MEAN_MOTION_DOT = .3304E-4
MEAN_MOTION_DDOT = 0

CCSDS_OMM_VERS = 2.0
CREATION_DATE  = 
ORIGINATOR     = 

OBJECT_NAME    = TERRA
OBJECT_ID      = 1999-068A
CENTER_NAME    = EARTH
REF_FRAME      = TEME
TIME_SYSTEM    = UTC
MEAN_ELEMENT_THEORY = SGP/SGP4

EPOCH          = 2025-12-06T22:24:27.942336
MEAN_MOTION    = 14.60942360
ECCENTRICITY   = .00035044
INCLINATION    = 97.9756
RA_OF_ASC_NODE = 32.8310
ARG_OF_PERICENTER = 109.6003
MEAN_ANOMALY   = 63.3750

EPHEMERIS_TYPE = 0
CLASSIFICATION_TYPE = U
NORAD_CAT_ID   = 25994
ELEMENT_SET_NO = 999
REV_AT_EPOCH   = 38153
BSTAR          = .20421444E-3
MEAN_MOTION_DOT = .956E-5
MEAN_MOTION_DDOT = 0

